DataRate=20
DataType=Quaternion
version=3
OpenSimVersion=4.5
endheader
time	calcn_l_imu	calcn_r_imu	tibia_l_imu	tibia_r_imu	femur_l_imu	femur_r_imu	pelvis_imu	torso_imu	radius_l_imu	radius_r_imu	humerus_l_imu	humerus_r_imu
290.98500000003094	-0.7080967052909473,-0.008485277496728505,0.6996114067207944,-0.09503513746615327	0.897601327369389,-0.4361434487779787,-0.011101574728178638,0.0631446349783322	-0.35263415202218296,0.3024295741825671,-0.21503115590700433,0.8590639981852406	-0.08746908273544729,-0.9917172420695196,-0.06745798387310627,0.06477097822392565	0.01760693025912302,-0.7344718026940038,0.07841813131142988,0.6738020464652996	-0.04306278382273282,-0.6841257905674976,-0.016546304816346336,0.7278956720676976	-0.1313804301326742,0.6655288940571263,0.02121318320510912,0.7344010802822025	-0.010040917675265604,-0.7039954797560491,-0.010111640087066887,0.7101473180583963	0.2831962549913254,0.08167082488197025,0.0813172865799488,0.9521899466341233	0.07608471319047272,-0.9937678548369686,0.07170062435014984,0.03818376454034648	0.04341635505197969,0.01994041028326389,0.030971274453442388,0.9984347332257314	0.05918483846196848,-0.9966669679586391,0.0016263467852701864,0.0564978293554292
